OBJECT_NAME,OBJECT_ID,EPOCH,MEAN_MOTION,ECCENTRICITY,INCLINATION,RA_OF_ASC_NODE,ARG_OF_PERICENTER,MEAN_ANOMALY,EPHEMERIS_TYPE,CLASSIFICATION_TYPE,NORAD_CAT_ID,ELEMENT_SET_NO,REV_AT_EPOCH,BSTAR,MEAN_MOTION_DOT,MEAN_MOTION_DDOT
SL-16 R/B,1994-077B,2026-06-18T02:38:26.354400,14.15572459,.00029451,70.9810,141.2208,327.4703,32.6238,0,U,23405,999,63044,.99220771E-4,.146E-5,0
ARIANE 40+ R/B,1995-021B,2026-06-18T03:50:24.817344,14.39833872,.00065262,98.4412,239.2209,190.6975,198.2112,0,U,23561,999,63370,.7911615E-4,.205E-5,0
SL-16 R/B,1995-058B,2026-06-17T20:08:26.066976,14.15508921,.00138027,71.0221,329.9893,319.5730,40.4366,0,U,23705,999,58202,.16986294E-3,.285E-5,0
SL-16 R/B,1996-051B,2026-06-17T21:08:55.277376,14.12446085,.00155249,70.7641,323.1797,335.8537,24.1853,0,U,24298,999,53579,.86860228E-4,.111E-5,0
ORBVIEW 2 (SEASTAR),1997-037A,2026-06-18T01:34:16.013568,14.35553615,.00032127,98.8688,336.1088,114.2817,245.8703,0,U,24883,999,52287,.70624028E-4,.157E-5,0
SL-16 R/B,1998-043G,2026-06-17T20:29:51.199584,14.26068691,.00109459,98.8364,123.0190,84.6131,275.6297,0,U,25400,999,45326,.3175184E-4,.31E-6,0
SL-16 R/B,1998-045B,2026-06-17T20:55:05.940192,14.16202944,.00093599,71.0117,330.8901,240.7930,119.2257,0,U,25407,999,44128,-.90675861E-4,-.227E-5,0
ISS (ZARYA),1998-067A,2026-06-18T03:46:08.346720,15.49293017,.00047434,51.6334,295.2921,200.3344,159.7456,0,U,25544,999,57190,.18166151E-3,.9674E-4,0
CZ-4B R/B,1999-025C,2026-06-18T03:01:40.609344,14.18283671,.00380311,98.6483,210.9410,57.0355,6.2831,0,U,25732,999,40240,.33335675E-4,.26E-6,0
OKEAN-O,1999-039A,2026-06-18T03:48:22.714272,14.80468379,.00015624,97.9316,227.9454,72.0317,288.1065,0,U,25860,999,44925,.70709553E-4,.489E-5,0
SL-16 R/B,1999-039B,2026-06-18T02:41:11.796576,14.81845943,.00134499,97.9837,227.9723,293.5929,66.3871,0,U,25861,999,45173,.5140585E-4,.353E-5,0
DELTA 2 R/B,1999-041E,2026-06-18T07:23:24.569664,14.12017678,.05008419,51.7653,259.3197,285.3300,69.2828,0,U,25876,999,37724,.10342985E-3,.406E-5,0
HELIOS 1B,1999-064A,2026-06-18T04:29:43.389600,14.88008910,.00025094,98.1614,74.3560,89.9405,270.2098,0,U,25977,999,70020,.12166273E-3,.1058E-4,0
TERRA,1999-068A,2026-06-18T05:54:59.640768,14.61103942,.00016681,97.9456,218.7508,185.9258,215.8449,0,U,25994,999,40976,.75436728E-4,.327E-5,0
SL-16 R/B,2000-006B,2026-06-18T04:41:40.263360,14.15834125,.00155823,71.0019,246.5049,21.5115,338.6659,0,U,26070,999,36278,.35589834E-4,.22E-6,0
TITAN 4B R/B,2000-047B,2026-06-18T06:03:27.866304,15.10202334,.0045793,67.9883,117.5749,285.9815,73.6292,0,U,26474,999,40809,.15293878E-3,.2426E-4,0
ENVISAT,2002-009A,2026-06-18T07:29:19.669344,14.39065030,.00013509,98.3835,120.6054,88.6912,75.6408,0,U,27386,999,27364,.34593762E-4,.64E-6,0
IDEFIX & ARIANE 42P R/B,2002-021B,2026-06-17T19:53:23.246592,14.31082352,.00105985,98.5942,106.3049,251.8310,108.1719,0,U,27422,999,25834,.77669441E-4,.161E-5,0
AQUA,2002-022A,2026-06-18T07:04:17.893056,14.62159623,.00010621,98.4277,138.5996,53.5785,53.3555,0,U,27424,999,28343,.13218808E-3,.616E-5,0
CZ-4B R/B,2002-024C,2026-06-18T01:56:15.518688,14.14564525,.00512118,98.8699,221.8951,97.7647,280.6583,0,U,27432,999,24343,.34632135E-4,.23E-6,0
MIDORI II (ADEOS-II),2002-056A,2026-06-17T21:47:38.335776,14.29349958,.00021959,98.7878,128.1740,76.0536,284.0889,0,U,27597,999,22461,.94302996E-4,.195E-5,0
H-2A R/B,2002-056E,2026-06-17T22:05:49.809696,14.33822298,.00692145,98.3312,125.5684,222.3551,207.5524,0,U,27601,999,22847,.65741385E-4,.146E-5,0
CZ-4B R/B,2003-049C,2026-06-17T23:42:11.765088,14.55100613,.00469465,98.6896,167.8660,286.0873,73.5157,0,U,28059,999,20118,.60933281E-4,.214E-5,0
CZ-2C R/B,2004-012C,2026-06-18T04:10:41.547072,15.79152385,.00094636,97.7074,244.9520,279.2126,80.8069,0,U,28222,999,22005,.45994027E-3,.8258E-3,0
SL-16 R/B,2004-021B,2026-06-18T00:14:09.191904,14.14608016,.00072414,71.0007,21.9627,253.9271,106.1054,0,U,28353,999,13702,-.95743137E-4,-.232E-5,0
CZ-4B R/B,2004-035C,2026-06-18T01:08:54.895776,15.30637383,.00297813,97.3361,202.1117,334.8435,25.1353,0,U,28415,999,19525,.21515496E-3,.638E-4,0
CZ-2C R/B,2004-046B,2026-06-17T18:03:31.233312,14.27026587,.01385125,98.1945,77.4980,218.5870,140.5350,0,U,28480,999,12277,.36708266E-4,.57E-6,0
ARIANE 5 R/B,2004-049H,2026-06-18T01:45:31.611456,14.85450043,.00844417,98.2721,341.3602,26.5849,333.9658,0,U,28499,999,16069,.59462944E-4,.481E-5,0
CZ-2D R/B,2005-024B,2026-06-18T01:09:16.079328,15.69638082,.00032384,97.3481,188.5194,51.8384,308.3169,0,U,28738,999,15547,.42868115E-3,.50783E-3,0
ALOS (DAICHI),2006-002A,2026-06-17T20:08:30.616800,14.70051683,.00014287,98.1323,124.4045,56.9447,303.1896,0,U,28931,999,8819,.15035887E-3,.853E-5,0
