SL-16 R/B               
1 23405U 94077B   26169.11002725  .00000146  00000+0  99221-4 0  9990
2 23405  70.9810 141.2208 0002945 327.4703  32.6238 14.15572459630449
ARIANE 40+ R/B          
1 23561U 95021B   26169.16000946  .00000205  00000+0  79116-4 0  9998
2 23561  98.4412 239.2209 0006526 190.6975 198.2112 14.39833872633701
SL-16 R/B               
1 23705U 95058B   26168.83919059  .00000285  00000+0  16986-3 0  9998
2 23705  71.0221 329.9893 0013802 319.5730  40.4366 14.15508921582023
SL-16 R/B               
1 24298U 96051B   26168.88119534  .00000111  00000+0  86860-4 0  9992
2 24298  70.7641 323.1797 0015524 335.8537  24.1853 14.12446085535792
ORBVIEW 2 (SEASTAR)     
1 24883U 97037A   26169.06546312  .00000157  00000+0  70624-4 0  9997
2 24883  98.8688 336.1088 0003212 114.2817 245.8703 14.35553615522876
SL-16 R/B               
1 25400U 98043G   26168.85406481  .00000031  00000+0  31752-4 0  9999
2 25400  98.8364 123.0190 0010945  84.6131 275.6297 14.26068691453260
SL-16 R/B               
1 25407U 98045B   26168.87159653 -.00000227  00000+0 -90676-4 0  9995
2 25407  71.0117 330.8901 0009359 240.7930 119.2257 14.16202944441281
ISS (ZARYA)             
1 25544U 98067A   26169.15704105  .00009674  00000+0  18166-3 0  9997
2 25544  51.6334 295.2921 0004743 200.3344 159.7456 15.49293017571908
CZ-4B R/B               
1 25732U 99025C   26169.12616446  .00000026  00000+0  33336-4 0  9997
2 25732  98.6483 210.9410 0038031  57.0355   6.2831 14.18283671402407
OKEAN-O                 
1 25860U 99039A   26169.15859623  .00000489  00000+0  70710-4 0  9993
2 25860  97.9316 227.9454 0001562  72.0317 288.1065 14.80468379449259
SL-16 R/B               
1 25861U 99039B   26169.11194209  .00000353  00000+0  51406-4 0  9993
2 25861  97.9837 227.9723 0013449 293.5929  66.3871 14.81845943451737
DELTA 2 R/B             
1 25876U 99041E   26169.30792326  .00000406  00000+0  10343-3 0  9990
2 25876  51.7653 259.3197 0500841 285.3300  69.2828 14.12017678377247
HELIOS 1B               
1 25977U 99064A   26169.18730775  .00001058  00000+0  12166-3 0  9992
2 25977  98.1614  74.3560 0002509  89.9405 270.2098 14.88008910700203
TERRA                   
1 25994U 99068A   26169.24652362  .00000327  00000+0  75437-4 0  9996
2 25994  97.9456 218.7508 0001668 185.9258 215.8449 14.61103942409761
SL-16 R/B               
1 26070U 00006B   26169.19560490  .00000022  00000+0  35590-4 0  9998
2 26070  71.0019 246.5049 0015582  21.5115 338.6659 14.15834125362781
TITAN 4B R/B            
1 26474U 00047B   26169.25240586  .00002426  00000+0  15294-3 0  9997
2 26474  67.9883 117.5749 0045793 285.9815  73.6292 15.10202334408097
ENVISAT                 
1 27386U 02009A   26169.31203321  .00000064  00000+0  34594-4 0  9994
2 27386  98.3835 120.6054 0001350  88.6912  75.6408 14.39065030273648
IDEFIX & ARIANE 42P R/B 
1 27422U 02021B   26168.82874128  .00000161  00000+0  77669-4 0  9991
2 27422  98.5942 106.3049 0010598 251.8310 108.1719 14.31082352258340
AQUA                    
1 27424U 02022A   26169.29465154  .00000616  00000+0  13219-3 0  9996
2 27424  98.4277 138.5996 0001062  53.5785  53.3555 14.62159623283436
CZ-4B R/B               
1 27432U 02024C   26169.08073517  .00000023  00000+0  34632-4 0  9997
2 27432  98.8699 221.8951 0051211  97.7647 280.6583 14.14564525243432
MIDORI II (ADEOS-II)    
1 27597U 02056A   26168.90808259  .00000195  00000+0  94303-4 0  9994
2 27597  98.7878 128.1740 0002195  76.0536 284.0889 14.29349958224614
H-2A R/B                
1 27601U 02056E   26168.92071539  .00000146  00000+0  65741-4 0  9995
2 27601  98.3312 125.5684 0069214 222.3551 207.5524 14.33822298228477
CZ-4B R/B               
1 28059U 03049C   26168.98763617  .00000214  00000+0  60933-4 0  9991
2 28059  98.6896 167.8660 0046946 286.0873  73.5157 14.55100613201185
CZ-2C R/B               
1 28222U 04012C   26169.17409198  .00082580  00000+0  45994-3 0  9992
2 28222  97.7074 244.9520 0009463 279.2126  80.8069 15.79152385220055
SL-16 R/B               
1 28353U 04021B   26169.00982861 -.00000232  00000+0 -95743-4 0  9996
2 28353  71.0007  21.9627 0007241 253.9271 106.1054 14.14608016137029
CZ-4B R/B               
1 28415U 04035C   26169.04785759  .00006380  00000+0  21515-3 0  9994
2 28415  97.3361 202.1117 0029781 334.8435  25.1353 15.30637383195252
CZ-2C R/B               
1 28480U 04046B   26168.75244483  .00000057  00000+0  36708-4 0  9995
2 28480  98.1945  77.4980 0138512 218.5870 140.5350 14.27026587122775
ARIANE 5 R/B            
1 28499U 04049H   26169.07328254  .00000481  00000+0  59463-4 0  9997
2 28499  98.2721 341.3602 0084441  26.5849 333.9658 14.85450043160690
CZ-2D R/B               
1 28738U 05024B   26169.04810277  .00050783  00000+0  42868-3 0  9995
2 28738  97.3481 188.5194 0003238  51.8384 308.3169 15.69638082155473
ALOS (DAICHI)           
1 28931U 06002A   26168.83924325  .00000853  00000+0  15036-3 0  9993
2 28931  98.1323 124.4045 0001428  56.9447 303.1896 14.70051683 88192
